COSMOS 2475 [GLONASS-M] 
1 37869U 11064C   25334.31505213 -.00000004  00000+0  00000+0 0  9995
2 37869  65.1691  79.6892 0025982 248.1340 124.7491  2.13101381109538
BEIDOU-2 IGSO-5         
1 37948U 11073A   25334.80903912 -.00000172  00000+0  00000+0 0  9991
2 37948  48.0444 274.0065 0110907 222.2680 317.1379  1.00293171 51147
LUCH-5A                 
1 37951U 11074B   25334.60983766 -.00000028  00000+0  00000+0 0  9999
2 37951   8.2465  76.7646 0005783 171.9084 207.5733  1.00273230 51068
BEIDOU-2 G5             
1 38091U 12008A   25334.87377954  .00000079  00000+0  00000+0 0  9993
2 38091   3.0770  70.7417 0012100 225.2694 147.2486  1.00271693 50387
BEIDOU-2 M3             
1 38250U 12018A   25334.51414529 -.00000050  00000+0  00000+0 0  9992
2 38250  55.9307 311.5688 0024550 273.3237  86.3938  1.86229735 92241
BEIDOU-2 M4             
1 38251U 12018B   25334.44618295 -.00000050  00000+0  00000+0 0  9991
2 38251  55.8321 310.8010 0015683 276.2747  83.5448  1.86229429 92248
SES-5                   
1 38652U 12036A   25334.64909792  .00000056  00000+0  00000+0 0  9998
2 38652   0.0591 302.0882 0001986 303.6580  62.6928  1.00271359 42471
BEIDOU-2 M6             
1 38775U 12050B   25334.15714948 -.00000031  00000+0  00000+0 0  9997
2 38775  56.3677  69.4852 0010817 346.8684  13.1099  1.86230748 89601
